{
  "norad_id": 57147,
  "name": "STARLINK-5765",
  "history": [
    {
      "epoch": "2026-03-28T22:00:01.999584",
      "apogee_km": 487.7862591869989,
      "perigee_km": 485.44222122851806,
      "latitude_deg": -5.642722164381976,
      "longitude_deg": -17.297778240172192,
      "semi_major_axis_km": 6864.751240207758,
      "eccentricity": 0.00017073,
      "inclination_deg": 43.0078,
      "raan_deg": 154.9568,
      "arg_perigee_deg": 278.3361,
      "mean_anomaly_deg": 2.5422,
      "mean_motion_rev_day": 15.26390153
    },
    {
      "epoch": "2026-03-29T04:00:01.999584",
      "apogee_km": 486.65831903277376,
      "perigee_km": 485.0370458507823,
      "latitude_deg": 35.94944300200096,
      "longitude_deg": 6.7022217598278075,
      "semi_major_axis_km": 6863.984682441778,
      "eccentricity": 0.0001181,
      "inclination_deg": 43.0007,
      "raan_deg": 153.5449,
      "arg_perigee_deg": 262.7478,
      "mean_anomaly_deg": 313.6416,
      "mean_motion_rev_day": 15.26645857
    }
  ]
}